start=new Date('2022-09-10T00:00:00.000Z').valueOf();
sats=[{"GP_ID":"212165615","MEAN_MOTION_DDOT":"0.0000000000000","COUNTRY_CODE":"US","ECCENTRICITY":"0.00014900","CENTER_NAME":"EARTH","FILE":"3565505","MEAN_ANOMALY":"284.6566","OBJECT_ID":"2021-041A","LAUNCH_DATE":"2021-05-15","EPHEMERIS_TYPE":"0","INCLINATION":"53.0541","REF_FRAME":"TEME","SITE":"AFETR","PERIAPSIS":"546.182","CLASSIFICATION_TYPE":"U","EPOCH":"2022-09-09T19:58:44.066208","RCS_SIZE":"LARGE","RA_OF_ASC_NODE":"103.6520","ARG_OF_PERICENTER":"75.4588","TIME_SYSTEM":"UTC","MEAN_MOTION":"15.06399924","MEAN_ELEMENT_THEORY":"SGP4","DECAY_DATE":null,"REV_AT_EPOCH":"7275","SEMIMAJOR_AXIS":"6925.349","NORAD_CAT_ID":"48553","MEAN_MOTION_DOT":"0.00001255","TLE_LINE2":"2 48553  53.0541 103.6520 0001490  75.4588 284.6566 15.06399924 72759","PERIOD":"95.592","TLE_LINE1":"1 48553U 21041A   22252.83245447  .00001255  00000-0  10313-3 0  9997","APOAPSIS":"548.246","OBJECT_TYPE":"PAYLOAD","OBJECT_NAME":"STARLINK-2063","BSTAR":"0.00010313000000","ELEMENT_SET_NO":"999"},{"OBJECT_ID":"2021-041B","REF_FRAME":"TEME","SITE":"AFETR","INCLINATION":"53.0529","LAUNCH_DATE":"2021-05-15","EPHEMERIS_TYPE":"0","CLASSIFICATION_TYPE":"U","PERIAPSIS":"546.259","EPOCH":"2022-09-09T20:09:20.798784","GP_ID":"212165865","ECCENTRICITY":"0.00013860","COUNTRY_CODE":"US","MEAN_MOTION_DDOT":"0.0000000000000","FILE":"3565505","CENTER_NAME":"EARTH","MEAN_ANOMALY":"258.6081","APOAPSIS":"548.178","OBJECT_NAME":"STARLINK-2139","OBJECT_TYPE":"PAYLOAD","ELEMENT_SET_NO":"999","BSTAR":"0.00004630100000","TIME_SYSTEM":"UTC","ARG_OF_PERICENTER":"101.5064","RCS_SIZE":"LARGE","RA_OF_ASC_NODE":"103.6270","MEAN_ELEMENT_THEORY":"SGP4","DECAY_DATE":null,"MEAN_MOTION":"15.06398341","MEAN_MOTION_DOT":"0.00000408","NORAD_CAT_ID":"48554","REV_AT_EPOCH":"7275","SEMIMAJOR_AXIS":"6925.354","TLE_LINE1":"1 48554U 21041B   22252.83982406  .00000408  00000-0  46301-4 0  9997","TLE_LINE2":"2 48554  53.0529 103.6270 0001386 101.5064 258.6081 15.06398341 72757","PERIOD":"95.592"},{"CENTER_NAME":"EARTH","FILE":"3565505","MEAN_ANOMALY":"296.3357","GP_ID":"212166616","COUNTRY_CODE":"US","ECCENTRICITY":"0.00016440","MEAN_MOTION_DDOT":"0.0000000000000","CLASSIFICATION_TYPE":"U","PERIAPSIS":"546.035","EPOCH":"2022-09-09T20:50:28.698144","OBJECT_ID":"2021-041C","REF_FRAME":"TEME","SITE":"AFETR","LAUNCH_DATE":"2021-05-15","EPHEMERIS_TYPE":"0","INCLINATION":"53.0535","NORAD_CAT_ID":"48555","MEAN_MOTION_DOT":"0.00004913","REV_AT_EPOCH":"7261","SEMIMAJOR_AXIS":"6925.308","TLE_LINE2":"2 48555  53.0535 113.4992 0001644  63.7800 296.3357 15.06413094 72612","PERIOD":"95.591","TLE_LINE1":"1 48555U 21041C   22252.86838771  .00004913  00000-0  34840-3 0  9995","TIME_SYSTEM":"UTC","RCS_SIZE":"LARGE","RA_OF_ASC_NODE":"113.4992","ARG_OF_PERICENTER":"63.7800","DECAY_DATE":null,"MEAN_ELEMENT_THEORY":"SGP4","MEAN_MOTION":"15.06413094","OBJECT_NAME":"STARLINK-2145","OBJECT_TYPE":"PAYLOAD","BSTAR":"0.00034840000000","ELEMENT_SET_NO":"999","APOAPSIS":"548.312"},{"MEAN_ANOMALY":"276.2249","FILE":"3565505","CENTER_NAME":"EARTH","MEAN_MOTION_DDOT":"0.0000000000000","ECCENTRICITY":"0.00014970","COUNTRY_CODE":"US","GP_ID":"212167364","EPOCH":"2022-09-09T20:34:34.159584","PERIAPSIS":"546.201","CLASSIFICATION_TYPE":"U","LAUNCH_DATE":"2021-05-15","EPHEMERIS_TYPE":"0","INCLINATION":"53.0546","REF_FRAME":"TEME","SITE":"AFETR","OBJECT_ID":"2021-041D","TLE_LINE1":"1 48556U 21041D   22252.85733981 -.00000503  00000-0 -14851-4 0  9996","PERIOD":"95.593","TLE_LINE2":"2 48556  53.0546 113.5516 0001497  83.8910 276.2249 15.06392273 72611","SEMIMAJOR_AXIS":"6925.372","REV_AT_EPOCH":"7261","MEAN_MOTION_DOT":"-0.00000503","NORAD_CAT_ID":"48556","MEAN_MOTION":"15.06392273","MEAN_ELEMENT_THEORY":"SGP4","DECAY_DATE":null,"ARG_OF_PERICENTER":"83.8910","RCS_SIZE":"LARGE","RA_OF_ASC_NODE":"113.5516","TIME_SYSTEM":"UTC","ELEMENT_SET_NO":"999","BSTAR":"-0.00001485100000","OBJECT_TYPE":"PAYLOAD","OBJECT_NAME":"STARLINK-2151","APOAPSIS":"548.274"},{"MEAN_MOTION_DOT":"0.00001622","NORAD_CAT_ID":"48557","SEMIMAJOR_AXIS":"6925.336","REV_AT_EPOCH":"7275","TLE_LINE1":"1 48557U 21041E   22252.86193832  .00001622  00000-0  12776-3 0  9997","PERIOD":"95.592","TLE_LINE2":"2 48557  53.0535 103.5177 0001536  81.8824 278.2339 15.06404153 72756","TIME_SYSTEM":"UTC","ARG_OF_PERICENTER":"81.8824","RA_OF_ASC_NODE":"103.5177","RCS_SIZE":"LARGE","DECAY_DATE":null,"MEAN_ELEMENT_THEORY":"SGP4","MEAN_MOTION":"15.06404153","OBJECT_NAME":"STARLINK-2155","OBJECT_TYPE":"PAYLOAD","ELEMENT_SET_NO":"999","BSTAR":"0.00012776000000","APOAPSIS":"548.265","CENTER_NAME":"EARTH","FILE":"3565505","MEAN_ANOMALY":"278.2339","GP_ID":"212166115","ECCENTRICITY":"0.00015360","COUNTRY_CODE":"US","MEAN_MOTION_DDOT":"0.0000000000000","CLASSIFICATION_TYPE":"U","PERIAPSIS":"546.137","EPOCH":"2022-09-09T20:41:11.470848","OBJECT_ID":"2021-041E","REF_FRAME":"TEME","SITE":"AFETR","EPHEMERIS_TYPE":"0","LAUNCH_DATE":"2021-05-15","INCLINATION":"53.0535"},{"PERIOD":"95.592","TLE_LINE2":"2 48558  53.0552 103.5483 0001355  93.3288 266.7856 15.06395578 71897","TLE_LINE1":"1 48558U 21041F   22252.85825702  .00002457  00000-0  18380-3 0  9999","REV_AT_EPOCH":"7189","SEMIMAJOR_AXIS":"6925.362","NORAD_CAT_ID":"48558","MEAN_MOTION_DOT":"0.00002457","MEAN_MOTION":"15.06395578","DECAY_DATE":null,"MEAN_ELEMENT_THEORY":"SGP4","RA_OF_ASC_NODE":"103.5483","RCS_SIZE":"LARGE","ARG_OF_PERICENTER":"93.3288","TIME_SYSTEM":"UTC","BSTAR":"0.00018380000000","ELEMENT_SET_NO":"999","OBJECT_TYPE":"PAYLOAD","OBJECT_NAME":"STARLINK-2166","APOAPSIS":"548.165","MEAN_ANOMALY":"266.7856","CENTER_NAME":"EARTH","FILE":"3565505","MEAN_MOTION_DDOT":"0.0000000000000","COUNTRY_CODE":"US","ECCENTRICITY":"0.00013550","GP_ID":"212166365","EPOCH":"2022-09-09T20:35:53.406528","PERIAPSIS":"546.289","CLASSIFICATION_TYPE":"U","EPHEMERIS_TYPE":"0","LAUNCH_DATE":"2021-05-15","INCLINATION":"53.0552","REF_FRAME":"TEME","SITE":"AFETR","OBJECT_ID":"2021-041F"},{"APOAPSIS":"548.164","ELEMENT_SET_NO":"999","BSTAR":"0.00018724000000","OBJECT_TYPE":"PAYLOAD","OBJECT_NAME":"STARLINK-2167","MEAN_MOTION":"15.06399929","DECAY_DATE":null,"MEAN_ELEMENT_THEORY":"SGP4","RA_OF_ASC_NODE":"103.6727","RCS_SIZE":"LARGE","ARG_OF_PERICENTER":"81.4634","TIME_SYSTEM":"UTC","TLE_LINE2":"2 48559  53.0548 103.6727 0001372  81.4634 278.6511 15.06399929 72746","PERIOD":"95.592","TLE_LINE1":"1 48559U 21041G   22252.82782571  .00002509  00000-0  18724-3 0  9993","SEMIMAJOR_AXIS":"6925.349","REV_AT_EPOCH":"7274","NORAD_CAT_ID":"48559","MEAN_MOTION_DOT":"0.00002509","LAUNCH_DATE":"2021-05-15","EPHEMERIS_TYPE":"0","INCLINATION":"53.0548","REF_FRAME":"TEME","SITE":"AFETR","OBJECT_ID":"2021-041G","EPOCH":"2022-09-09T19:52:04.141344","PERIAPSIS":"546.264","CLASSIFICATION_TYPE":"U","MEAN_MOTION_DDOT":"0.0000000000000","COUNTRY_CODE":"US","ECCENTRICITY":"0.00013720","GP_ID":"212167116","MEAN_ANOMALY":"278.6511","CENTER_NAME":"EARTH","FILE":"3565505"},{"OBJECT_ID":"2021-041J","EPHEMERIS_TYPE":"0","LAUNCH_DATE":"2021-05-15","INCLINATION":"53.0533","SITE":"AFETR","REF_FRAME":"TEME","PERIAPSIS":"546.131","CLASSIFICATION_TYPE":"U","EPOCH":"2022-09-09T18:37:50.463264","GP_ID":"212166865","MEAN_MOTION_DDOT":"0.0000000000000","COUNTRY_CODE":"US","ECCENTRICITY":"0.00015040","FILE":"3565505","CENTER_NAME":"EARTH","MEAN_ANOMALY":"256.6845","APOAPSIS":"548.214","OBJECT_TYPE":"PAYLOAD","OBJECT_NAME":"STARLINK-2186","BSTAR":"0.00024167000000","ELEMENT_SET_NO":"999","RCS_SIZE":"LARGE","RA_OF_ASC_NODE":"74.1791","ARG_OF_PERICENTER":"103.4312","TIME_SYSTEM":"UTC","MEAN_MOTION":"15.06413366","DECAY_DATE":null,"MEAN_ELEMENT_THEORY":"SGP4","SEMIMAJOR_AXIS":"6925.308","REV_AT_EPOCH":"7316","NORAD_CAT_ID":"48561","MEAN_MOTION_DOT":"0.00003321","PERIOD":"95.591","TLE_LINE2":"2 48561  53.0533  74.1791 0001504 103.4312 256.6845 15.06413366 73166","TLE_LINE1":"1 48561U 21041J   22252.77627851  .00003321  00000-0  24167-3 0  9990"},{"MEAN_MOTION":"15.06329183","DECAY_DATE":null,"MEAN_ELEMENT_THEORY":"SGP4","ARG_OF_PERICENTER":"90.1990","RA_OF_ASC_NODE":"103.6325","RCS_SIZE":"LARGE","TIME_SYSTEM":"UTC","TLE_LINE1":"1 48562U 21041K   22252.83615196  .00015293  00000-0  10453-2 0  9990","PERIOD":"95.597","TLE_LINE2":"2 48562  53.0541 103.6325 0001811  90.1990 269.9207 15.06329183 72758","SEMIMAJOR_AXIS":"6925.566","REV_AT_EPOCH":"7275","MEAN_MOTION_DOT":"0.00015293","NORAD_CAT_ID":"48562","APOAPSIS":"548.685","ELEMENT_SET_NO":"999","BSTAR":"0.00104530000000","OBJECT_TYPE":"PAYLOAD","OBJECT_NAME":"STARLINK-2187","MEAN_MOTION_DDOT":"0.0000000000000","ECCENTRICITY":"0.00018110","COUNTRY_CODE":"US","GP_ID":"212165616","MEAN_ANOMALY":"269.9207","CENTER_NAME":"EARTH","FILE":"3565505","LAUNCH_DATE":"2021-05-15","EPHEMERIS_TYPE":"0","INCLINATION":"53.0541","SITE":"AFETR","REF_FRAME":"TEME","OBJECT_ID":"2021-041K","EPOCH":"2022-09-09T20:04:03.529344","PERIAPSIS":"546.176","CLASSIFICATION_TYPE":"U"},{"RA_OF_ASC_NODE":"103.5478","RCS_SIZE":"LARGE","ARG_OF_PERICENTER":"78.4406","TIME_SYSTEM":"UTC","MEAN_MOTION":"15.06406013","MEAN_ELEMENT_THEORY":"SGP4","DECAY_DATE":null,"SEMIMAJOR_AXIS":"6925.330","REV_AT_EPOCH":"7275","NORAD_CAT_ID":"48563","MEAN_MOTION_DOT":"0.00003003","PERIOD":"95.592","TLE_LINE2":"2 48563  53.0529 103.5478 0001354  78.4406 281.6735 15.06406013 72751","TLE_LINE1":"1 48563U 21041L   22252.85457260  .00003003  00000-0  22035-3 0  9995","APOAPSIS":"548.133","OBJECT_TYPE":"PAYLOAD","OBJECT_NAME":"STARLINK-2188","ELEMENT_SET_NO":"999","BSTAR":"0.00022035000000","GP_ID":"212165866","MEAN_MOTION_DDOT":"0.0000000000000","COUNTRY_CODE":"US","ECCENTRICITY":"0.00013540","FILE":"3565505","CENTER_NAME":"EARTH","MEAN_ANOMALY":"281.6735","OBJECT_ID":"2021-041L","LAUNCH_DATE":"2021-05-15","EPHEMERIS_TYPE":"0","INCLINATION":"53.0529","REF_FRAME":"TEME","SITE":"AFETR","PERIAPSIS":"546.257","CLASSIFICATION_TYPE":"U","EPOCH":"2022-09-09T20:30:35.072640"}];
